[{"OBJECT_NAME":"ONEWEB-0348","OBJECT_ID":"2021-083AD","EPOCH":"2026-03-09T15:29:27.483936","MEAN_MOTION":13.20771082,"ECCENTRICITY":0.0001664,"INCLINATION":87.917,"RA_OF_ASC_NODE":294.3154,"ARG_OF_PERICENTER":66.4734,"MEAN_ANOMALY":293.6574,"EPHEMERIS_TYPE":0,"CLASSIFICATION_TYPE":"U","NORAD_CAT_ID":49213,"ELEMENT_SET_NO":999,"REV_AT_EPOCH":22367,"BSTAR":-0.00019332,"MEAN_MOTION_DOT":-6.6e-7,"MEAN_MOTION_DDOT":0},{"OBJECT_NAME":"SL-14 DEB","OBJECT_ID":"1991-056BJ","EPOCH":"2026-03-09T06:43:50.193120","MEAN_MOTION":13.36883523,"ECCENTRICITY":0.00854322,"INCLINATION":82.569,"RA_OF_ASC_NODE":162.8887,"ARG_OF_PERICENTER":135.6536,"MEAN_ANOMALY":225.1483,"EPHEMERIS_TYPE":0,"CLASSIFICATION_TYPE":"U","NORAD_CAT_ID":45320,"ELEMENT_SET_NO":999,"REV_AT_EPOCH":29362,"BSTAR":0.0021020308,"MEAN_MOTION_DOT":1.126e-5,"MEAN_MOTION_DDOT":0}]
